NORAD_CAT_ID,OBJECT_NAME,OBJECT_TYPE,EPOCH,MEAN_MOTION,ECCENTRICITY,INCLINATION,RA_OF_ASC_NODE,ARG_OF_PERICENTER,MEAN_ANOMALY,BSTAR,MEAN_MOTION_DOT,MEAN_MOTION_DDOT,TLE_LINE0,TLE_LINE1,TLE_LINE2,SEMIMAJOR_AXIS,PERIOD,APOGEE,PERIGEE,DECAYED
52359.0,STARLINK-3853,PAYLOAD,2022-11-19 04:20:56,15.0884756,0.0002666,53.2171,215.3598,29.81900000000001,330.2953,0.0002027,2.94e-05,0.0,0 STARLINK-3853,1 52359U 22045AE  22323.18121190  .00002940  00000-0  20270-3 0  9991,2 52359  53.2171 215.3598 0002666  29.8190 330.2953 15.08847560 33642,6917.857,95.437,541.567,537.878,0.0
52359.0,STARLINK-3853,PAYLOAD,2022-11-19 20:14:47,15.08848285,0.000286,53.218,212.3873,28.4154,331.6993,0.00017955,2.571e-05,0.0,0 STARLINK-3853,1 52359U 22045AE  22323.84360981  .00002571  00000-0  17955-3 0  9993,2 52359  53.2180 212.3873 0002860  28.4154 331.6993 15.08848285 33741,6917.855,95.437,541.6990000000002,537.742,0.0
52359.0,STARLINK-3853,PAYLOAD,2022-11-20 04:11:44,15.0883622,0.0002828,53.2168,210.9,26.7317,333.3821,-2.7456e-05,-7.26e-06,0.0,0 STARLINK-3853,1 52359U 22045AE  22324.17481519 -.00000726  00000-0 -27456-4 0  9991,2 52359  53.2168 210.9000 0002828  26.7317 333.3821 15.08836220 33799,6917.892,95.438,541.7130000000002,537.8009999999998,0.0
52359.0,STARLINK-3853,PAYLOAD,2022-11-20 20:05:35,15.08833968,0.0002746,53.2174,207.926,26.5952,333.5181,5.9773e-05,6.63e-06,0.0,0 STARLINK-3853,1 52359U 22045AE  22324.83721880  .00000663  00000-0  59773-4 0  9997,2 52359  53.2174 207.9260 0002746  26.5952 333.5181 15.08833968 33890,6917.899,95.438,541.663,537.864,0.0
52359.0,STARLINK-3853,PAYLOAD,2022-11-21 04:02:30,15.0884314,0.0002783,53.2167,206.4392,27.4111,332.7028,0.0001018,1.332e-05,0.0,0 STARLINK-3853,1 52359U 22045AE  22325.16841377  .00001332  00000-0  10180-3 0  9990,2 52359  53.2167 206.4392 0002783  27.4111 332.7028 15.08843140 33940,6917.871,95.437,541.661,537.811,0.0
52359.0,STARLINK-3853,PAYLOAD,2022-11-21 19:56:22,15.0883456,0.0002733,53.2166,203.4655,29.8007,330.314,2.6876e-05,1.39e-06,0.0,0 STARLINK-3853,1 52359U 22045AE  22325.83081852  .00000139  00000-0  26876-4 0  9992,2 52359  53.2166 203.4655 0002733  29.8007 330.3140 15.08834560 34040,6917.897,95.438,541.653,537.871,0.0
52359.0,STARLINK-3853,PAYLOAD,2022-11-22 02:17:55,15.08836886,0.0002733,53.2167,202.2761,30.3499,329.7651,5.6552e-05,6.12e-06,0.0,0 STARLINK-3853,1 52359U 22045AE  22326.09577833  .00000612  00000-0  56552-4 0  9990,2 52359  53.2167 202.2761 0002733  30.3499 329.7651 15.08836886 34084,6917.89,95.438,541.646,537.864,0.0
52359.0,STARLINK-3853,PAYLOAD,2022-11-22 19:47:09,15.08843524,0.0002811,53.2166,199.0052,28.6678,331.4468,0.00010931,1.452e-05,0.0,0 STARLINK-3853,1 52359U 22045AE  22326.82441509  .00001452  00000-0  10931-3 0  9994,2 52359  53.2166 199.0052 0002811  28.6678 331.4468 15.08843524 34190,6917.87,95.437,541.679,537.79,0.0
52359.0,STARLINK-3853,PAYLOAD,2022-11-23 02:08:42,15.08832597,0.0002821,53.2172,197.8157,27.131,332.9829,6.988099999999997e-06,-1.77e-06,0.0,0 STARLINK-3853,1 52359U 22045AE  22327.08938545 -.00000177  00000-0  69881-5 0  9998,2 52359  53.2172 197.8157 0002821  27.1310 332.9829 15.08832597 34237,6917.903,95.438,541.72,537.816,0.0
52359.0,STARLINK-3853,PAYLOAD,2022-11-23 08:30:15,15.08832454,0.0002867,53.2171,196.6264,28.2337,331.881,7.5666e-06,-1.68e-06,0.0,0 STARLINK-3853,1 52359U 22045AE  22327.35434690 -.00000168  00000-0  75666-5 0  9998,2 52359  53.2171 196.6264 0002867  28.2337 331.8810 15.08832454 34277,6917.903,95.438,541.752,537.785,0.0
52359.0,STARLINK-3853,PAYLOAD,2022-11-23 16:27:11,15.08834208,0.0002771,53.2171,195.1395,27.4615,332.6523,3.1191e-05,2.08e-06,0.0,0 STARLINK-3853,1 52359U 22045AE  22327.68554583  .00000208  00000-0  31191-4 0  9996,2 52359  53.2171 195.1395 0002771  27.4615 332.6523 15.08834208 34325,6917.898,95.438,541.68,537.846,0.0
52359.0,STARLINK-3853,PAYLOAD,2022-11-24 00:24:06,15.08835284,0.0002826,53.2172,193.6527,28.2902,331.8243,8.4435e-05,1.055e-05,0.0,0 STARLINK-3853,1 52359U 22045AE  22328.01674494  .00001055  00000-0  84435-4 0  9998,2 52359  53.2172 193.6527 0002826  28.2902 331.8243 15.08835284 34375,6917.895,95.438,541.715,537.805,0.0
52359.0,STARLINK-3853,PAYLOAD,2022-11-24 21:04:07,15.08839897,0.0002873,53.2171,189.7868,30.4575,329.6584,0.00014036,1.946e-05,0.0,0 STARLINK-3853,1 52359U 22045AE  22328.87786073  .00001946  00000-0  14036-3 0  9997,2 52359  53.2171 189.7868 0002873  30.4575 329.6584 15.08839897 34503,6917.880999999999,95.438,541.7330000000002,537.758,0.0
52359.0,STARLINK-3853,PAYLOAD,2022-11-25 00:14:53,15.08841804,0.0002931,53.2172,189.1921,31.1561,328.9604,0.00015895,2.242e-05,0.0,0 STARLINK-3853,1 52359U 22045AE  22329.01033973  .00002242  00000-0  15895-3 0  9992,2 52359  53.2172 189.1921 0002931  31.1561 328.9604 15.08841804 34524,6917.875,95.437,541.768,537.712,0.0
52359.0,STARLINK-3853,PAYLOAD,2022-11-25 20:54:54,15.08843288,0.0002968,53.2174,185.3267,33.3726,326.7452,0.00012881,1.762e-05,0.0,0 STARLINK-3853,1 52359U 22045AE  22329.87146017  .00001762  00000-0  12881-3 0  9998,2 52359  53.2174 185.3267 0002968  33.3726 326.7452 15.08843288 34653,6917.87,95.437,541.789,537.682,0.0
52359.0,STARLINK-3853,PAYLOAD,2022-11-26 00:05:40,15.08840662,0.0002917,53.2173,184.7316,32.7927,327.3246,7.121800000000001e-05,8.45e-06,0.0,0 STARLINK-3853,1 52359U 22045AE  22330.00394269  .00000845  00000-0  71218-4 0  9990,2 52359  53.2173 184.7316 0002917  32.7927 327.3246 15.08840662 34673,6917.878000000002,95.438,541.761,537.725,0.0
52359.0,STARLINK-3853,PAYLOAD,2022-11-26 20:45:40,15.08849451,0.0002911,53.2177,180.8655,34.6955,325.4227,5.695e-05,6.18e-06,0.0,0 STARLINK-3853,1 52359U 22045AE  22330.86505445  .00000618  00000-0  56950-4 0  9998,2 52359  53.2177 180.8655 0002911  34.6955 325.4227 15.08849451 34804,6917.852,95.437,541.73,537.703,0.0
52359.0,STARLINK-3853,PAYLOAD,2022-11-27 01:31:49,15.08851859,0.0002967,53.2174,179.9737,35.0943,325.0244,7.6813e-05,9.34e-06,0.0,0 STARLINK-3853,1 52359U 22045AE  22331.06377107  .00000934  00000-0  76813-4 0  9994,2 52359  53.2174 179.9737 0002967  35.0943 325.0244 15.08851859 34837,6917.844,95.437,541.762,537.6569999999998,0.0
52359.0,STARLINK-3853,PAYLOAD,2022-11-27 20:36:28,15.08837467,0.000301,53.2166,176.4052,36.4259,323.6938,4.855e-05,4.84e-06,0.0,0 STARLINK-3853,1 52359U 22045AE  22331.85865922  .00000484  00000-0  48550-4 0  9995,2 52359  53.2166 176.4052 0003010  36.4259 323.6938 15.08837467 34951,6917.888000000001,95.438,541.835,537.6709999999998,0.0
52359.0,STARLINK-3853,PAYLOAD,2022-11-28 15:41:05,15.08840248,0.0003074,53.2169,172.8373,38.686,321.4351,-7.650700000000001e-06,-4.1e-06,0.0,0 STARLINK-3853,1 52359U 22045AE  22332.65353990 -.00000410  00000-0 -76507-5 0  9996,2 52359  53.2169 172.8373 0003074  38.6860 321.4351 15.08840248 35072,6917.88,95.438,541.871,537.618,0.0
52359.0,STARLINK-3853,PAYLOAD,2022-11-28 23:38:02,15.08828663,0.0003086,53.2172,171.3507,37.2435,322.8771,-0.0001104,-2.045e-05,0.0,0 STARLINK-3853,1 52359U 22045AE  22332.98475103 -.00002045  00000-0 -11040-3 0  9998,2 52359  53.2172 171.3507 0003086  37.2435 322.8771 15.08828663 35129,6917.915,95.438,541.915,537.645,0.0
52359.0,STARLINK-3853,PAYLOAD,2022-11-29 12:21:07,15.08827791,0.000303,53.2176,168.9724,37.6104,322.5099,-7.3562e-06,-4.06e-06,0.0,0 STARLINK-3853,1 52359U 22045AE  22333.51467214 -.00000406  00000-0 -73562-5 0  9990,2 52359  53.2176 168.9724 0003030  37.6104 322.5099 15.08827791 35202,6917.918000000002,95.438,541.879,537.687,0.0
52359.0,STARLINK-3853,PAYLOAD,2022-11-30 01:04:12,15.08830782,0.000305,53.217,166.5929,37.3288,322.7916,1.9792e-05,2.6e-07,0.0,0 STARLINK-3853,1 52359U 22045AE  22334.04459372  .00000026  00000-0  19792-4 0  9995,2 52359  53.2170 166.5929 0003050  37.3288 322.7916 15.08830782 35281,6917.909000000002,95.438,541.884,537.664,0.0
52359.0,STARLINK-3853,PAYLOAD,2022-11-30 05:50:22,15.08830459,0.0003039,53.2169,165.7009,38.1602,321.9605,1.7524e-05,-1e-07,0.0,0 STARLINK-3853,1 52359U 22045AE  22334.24331517 -.00000010  00000-0  17524-4 0  9992,2 52359  53.2169 165.7009 0003039  38.1602 321.9605 15.08830459 35316,6917.91,95.438,541.877,537.672,0.0
52359.0,STARLINK-3853,PAYLOAD,2022-11-30 15:22:41,15.08827731,0.0003015,53.2171,163.9166,39.0109,321.11,8.4262e-05,1.052e-05,0.0,0 STARLINK-3853,1 52359U 22045AE  22334.64075752  .00001052  00000-0  84262-4 0  9991,2 52359  53.2171 163.9166 0003015  39.0109 321.1100 15.08827731 35376,6917.918000000002,95.438,541.869,537.697,0.0
52359.0,STARLINK-3853,PAYLOAD,2022-11-30 23:19:36,15.08849052,0.0002878,53.2171,162.4296,43.8029,316.3191,-0.00016181,-2.864e-05,0.0,0 STARLINK-3853,1 52359U 22045AE  22334.97195257 -.00002864  00000-0 -16181-3 0  9998,2 52359  53.2171 162.4296 0002878  43.8029 316.3191 15.08849052 35426,6917.853,95.437,541.7090000000002,537.727,0.0
52359.0,STARLINK-3853,PAYLOAD,2022-12-01 05:41:09,15.08838767,0.0003094,53.217,161.2403,40.0031,320.1188,1.1112e-05,-1.12e-06,0.0,0 STARLINK-3853,1 52359U 22045AE  22335.23691685 -.00000112  00000-0  11112-4 0  9997,2 52359  53.2170 161.2403 0003094  40.0031 320.1188 15.08838767 35469,6917.884,95.438,541.89,537.609,0.0
52359.0,STARLINK-3853,PAYLOAD,2022-12-01 15:13:29,15.08828786,0.0003095,53.2171,159.4561,41.1054,319.0171,5.796899999999999e-05,6.34e-06,0.0,0 STARLINK-3853,1 52359U 22045AE  22335.63436605  .00000634  00000-0  57969-4 0  9998,2 52359  53.2171 159.4561 0003095  41.1054 319.0171 15.08828786 35528,6917.915,95.438,541.9209999999998,537.639,0.0
52359.0,STARLINK-3853,PAYLOAD,2022-12-02 11:53:30,15.08832295,0.0003155,53.2171,155.5903,42.9005,317.2233,6.6066e-05,7.63e-06,0.0,0 STARLINK-3853,1 52359U 22045AE  22336.49548952  .00000763  00000-0  66066-4 0  9993,2 52359  53.2171 155.5903 0003155  42.9005 317.2233 15.08832295 35650,6917.904,95.438,541.952,537.586,0.0
